ONEWEB-0457             
1 51647U 22012AB  23059.55227227 -.00000560  00000+0 -16409-2 0  9995
2 51647  87.8760 275.6107 0002176  80.7039 279.4334 13.10370575 51585
ONEWEB-0457             
1 51647U 22012AB  23059.62862976 -.00000556  00000+0 -16301-2 0  9995
2 51647  87.8760 275.5955 0002176  80.7340 279.4033 13.10370585 52892
ONEWEB-0457             
1 51647U 22012AB  23059.85770246 -.00000557  00000+0 -16328-2 0  9998
2 51647  87.8759 275.5495 0002175  80.3558 279.7815 13.10370451 51628
ONEWEB-0457             
1 51647U 22012AB  23060.85035194 -.00000613  00000+0 -17934-2 0  9993
2 51647  87.8757 275.3514 0002213  80.4225 279.7152 13.10369543 51759
ONEWEB-0457             
1 51647U 22012AB  23060.85035194 -.00000613  00000+0 -17934-2 0  9993
2 51647  87.8757 275.3514 0002213  80.4225 279.7152 13.10369543 53054
ONEWEB-0457             
1 51647U 22012AB  23061.61392894 -.00000541  00000+0 -15850-2 0  9996
2 51647  87.8754 275.1989 0002182  79.9945 280.1428 13.10369025 51855
ONEWEB-0457             
1 51647U 22012AB  23062.14843297 -.00000460  00000+0 -13535-2 0  9991
2 51647  87.8752 275.0919 0002165  79.7813 280.3558 13.10369167 51929
ONEWEB-0457             
1 51647U 22012AB  23062.14843297 -.00000460  00000+0 -13535-2 0  9991
2 51647  87.8752 275.0919 0002165  79.7813 280.3558 13.10369167 53224
ONEWEB-0457             
1 51647U 22012AB  23062.83565448 -.00000486  00000+0 -14292-2 0  9995
2 51647  87.8750 274.9546 0002148  79.5158 280.6211 13.10367643 52019
